[Satellite]
VERSION=1.1
NAME=GPS BIIR-08 (DASS)
NICKNAME=GPS BIIR-08 (DASS)
TLE1=1 27663U 03005A   15055.21016295 -.00000067  00000-0  00000+0 0  9997
TLE2=2 27663  56.7193  17.7220 0080872  12.4546 227.2784  2.00554543 88447
